PROBA-1                 
1 26958U 01049B   22047.44693650  .00002177  00000+0  18943-3 0  9990
2 26958  97.8055   7.5368 0073090  29.1258 331.3996 14.95986143106383
BIRD 2                  
1 26959U 01049C   22047.14999729  .00006784  00000+0  16529-3 0  9990
2 26959  97.7691 131.0525 0008598  88.0208 272.2022 15.41242645128243
CUTE-1 (CO-55)          
1 27844U 03031E   22047.50752454  .00000164  00000+0  93414-4 0  9994
2 27844  98.6811  57.0097 0010969  92.4696 267.7738 14.22382674966717
CUBESAT XI-IV (CO-57)   
1 27848U 03031J   22046.72961320  .00000136  00000+0  81095-4 0  9996
2 27848  98.6860  56.7848 0010820 107.0252 253.2112 14.21948989966387
GENESIS 1               
1 29252U 06029A   22047.47780742  .00002829  00000+0  13619-3 0  9994
2 29252  64.5224 108.0302 0059956 279.9940  79.4421 15.19555044860665
FALCONSAT-3             
1 30776U 07006E   22047.16728207  .00015907  00000+0  32269-3 0  9990
2 30776  35.4345 329.6975 0003896 304.2541  55.7819 15.45501836830762
GENESIS 2               
1 31789U 07028A   22046.67452164  .00002357  00000+0  12213-3 0  9992
2 31789  64.4973 153.5360 0033143 336.2022  23.7566 15.18515544807405
APRIZESAT 4             
1 35684U 09041D   22046.90978773  .00000400  00000+0  60358-4 0  9993
2 35684  98.3150  56.3761 0047471  23.0620 337.2707 14.79487901677096
APRIZESAT 3             
1 35686U 09041F   22046.76883205  .00000627  00000+0  72419-4 0  9996
2 35686  98.1137 130.7620 0071599 223.1578 136.4012 14.87678957680516
PROBA-2                 
1 36037U 09059B   22047.52442611  .00000108  00000+0  36863-4 0  9990
2 36037  98.2214 236.4036 0014428 119.5742 240.6894 14.53197878651782
APRIZESAT 5             
1 37792U 11044E   22047.40157867  .00000342  00000+0  57021-4 0  9998
2 37792  98.3445 279.1384 0058645  30.9879 329.4768 14.75607435565299
APRIZESAT 6             
1 37793U 11044F   22046.82148663  .00000290  00000+0  53374-4 0  9997
2 37793  98.4136 254.6842 0047964  80.2812 292.7747 14.72651557563964
TET-1                   
1 38710U 12039D   22046.73819976  .00022104  00000+0  26909-3 0  9995
2 38710  97.5243 119.3393 0002604 115.3061 244.8465 15.60544814538376
PROBA-V                 
1 39159U 13021A   22047.35723467  .00000011  00000+0  22904-4 0  9998
2 39159  98.3755  89.2605 0005366  87.1259 273.0534 14.23018018456106
STPSAT-3                
1 39380U 13064A   22047.39643473  .00005196  00000+0  12770-3 0  9991
2 39380  40.4993  46.0062 0004566 174.5989 185.4877 15.41190294462251
APRIZESAT 7             
1 39416U 13066A   22046.94309100  .00000590  00000+0  75536-4 0  9992
2 39416  97.5601  33.2582 0041969  40.1416 320.2886 14.84231665446048
APRIZESAT 8             
1 39425U 13066K   22046.87880816  .00000442  00000+0  61564-4 0  9994
2 39425  97.6115  24.2333 0053228  79.2570 281.4629 14.81414196444969
BUGSAT-1 (TITA)         
1 40014U 14033E   22047.57280289  .00001390  00000+0  12795-3 0  9995
2 40014  98.1346  41.1401 0032510  77.3779 283.1072 14.96134782418061
SAUDISAT 4              
1 40016U 14033G   22047.11407870  .00000281  00000+0  47699-4 0  9994
2 40016  97.6470 248.5844 0048338 173.2401 186.9472 14.75446507412529
APRIZESAT 9             
1 40018U 14033J   22047.05368674  .00000296  00000+0  55424-4 0  9998
2 40018  97.7038 224.2468 0069992 242.8530 116.5529 14.70139865410947
APRIZESAT 10            
1 40019U 14033K   22047.03651572  .00000230  00000+0  47437-4 0  9992
2 40019  97.7510 213.6660 0082775 284.1634  75.0385 14.67184922410171
TDS 1                   
1 40076U 14037H   22047.18883508  .00001324  00000+0  16168-3 0  9992
2 40076  98.4097 273.4708 0008038  99.7463 260.4658 14.85144606411785
TIANTUO 2               
1 40144U 14053B   22047.49207384  .00004705  00000+0  13380-3 0  9991
2 40144  97.2041 129.8974 0009446 278.3490 139.0921 15.36588537416517
TECHNOSAT               
1 42829U 17042E   22047.40672526  .00000838  00000+0  88636-4 0  9999
2 42829  97.4369 268.5099 0015431  55.7252 304.5426 14.91532882250042
FLYING LAPTOP           
1 42831U 17042G   22047.51392713  .00001203  00000+0  12505-3 0  9999
2 42831  97.4390 268.9013 0015355  56.2145 304.0522 14.91522475250062
HAWK-A                  
1 43765U 18099H   22046.87632232  .00001600  00000+0  14523-3 0  9993
2 43765  97.6348 117.9042 0013712 324.6189  35.4122 14.96614644174953
HAWK-B                  
1 43794U 18099AN  22046.74300388  .00001737  00000+0  15720-3 0  9996
2 43794  97.6349 117.7741 0013803 325.1771  34.8546 14.96615750174923
HAWK-C                  
1 43799U 18099AT  22047.47826216  .00001906  00000+0  17200-3 0  9998
2 43799  97.6347 118.4037 0013628 322.4436  37.5832 14.96618902175038
SALSAT                  
1 46495U 20068K   22046.82566987  .00001476  00000+0  11140-3 0  9996
2 46495  97.7200 348.2411 0015801 335.7708  24.2772 15.03896267 75908
